COMMENT,ORIGINATOR,NORAD_CAT_ID,OBJECT_NAME,OBJECT_TYPE,CLASSIFICATION_TYPE,INTLDES,EPOCH,EPOCH_MICROSECONDS,MEAN_MOTION,ECCENTRICITY,INCLINATION,RA_OF_ASC_NODE,ARG_OF_PERICENTER,MEAN_ANOMALY,EPHEMERIS_TYPE,ELEMENT_SET_NO,REV_AT_EPOCH,BSTAR,MEAN_MOTION_DOT,MEAN_MOTION_DDOT,FILE,TLE_LINE0,TLE_LINE1,TLE_LINE2,OBJECT_ID,OBJECT_NUMBER,SEMIMAJOR_AXIS,PERIOD,APOGEE,PERIGEE,DECAYED
"GENERATED VIA SPACETRACK.ORG API","18 SPCS","55102","SPACEBEE-157","PAYLOAD","U","23001CX","2024-04-13 03:32:46","381056","15.41855254","0.0007915","97.4247","169.9578","28.197","331.9704","0","999","7110","0.001204","0.00051311","0","4277595","0 SPACEBEE-157","1 55102U 23001CX  24104.14775904  .00051311  00000-0  12040-2 0  9997","2 55102  97.4247 169.9578 0007915  28.1970 331.9704 15.41855254 71108","2023-001CX","55102","6818.771","93.394","446.033","435.239","0"
"GENERATED VIA SPACETRACK.ORG API","18 SPCS","55102","SPACEBEE-157","PAYLOAD","U","23001CX","2024-04-13 03:32:46","381056","15.41855254","0.0007915","97.4247","169.9578","28.197","331.9704","0","999","7110","0.001204","0.00051311","0","4278498","0 SPACEBEE-157","1 55102U 23001CX  24104.14775904  .00051311  00000-0  12040-2 0  9997","2 55102  97.4247 169.9578 0007915  28.1970 331.9704 15.41855254 71108","2023-001CX","55102","6818.771","93.394","446.033","435.239","0"
"GENERATED VIA SPACETRACK.ORG API","18 SPCS","55102","SPACEBEE-157","PAYLOAD","U","23001CX","2024-04-13 16:00:23","683392","15.41919366","0.0007961","97.4246","170.4865","25.9587","334.2058","0","999","7118","0.0014942","0.0006394","0","4278778","0 SPACEBEE-157","1 55102U 23001CX  24104.66694078  .00063940  00000-0  14942-2 0  9990","2 55102  97.4246 170.4865 0007961  25.9587 334.2058 15.41919366 71184","2023-001CX","55102","6818.582","93.390","445.875","435.019","0"
"GENERATED VIA SPACETRACK.ORG API","18 SPCS","55102","SPACEBEE-157","PAYLOAD","U","23001CX","2024-04-13 16:00:23","683392","15.41919366","0.0007961","97.4246","170.4865","25.9587","334.2058","0","999","7118","0.0014942","0.0006394","0","4278987","0 SPACEBEE-157","1 55102U 23001CX  24104.66694078  .00063940  00000-0  14942-2 0  9990","2 55102  97.4246 170.4865 0007961  25.9587 334.2058 15.41919366 71184","2023-001CX","55102","6818.582","93.390","445.875","435.019","0"
"GENERATED VIA SPACETRACK.ORG API","18 SPCS","55102","SPACEBEE-157","PAYLOAD","U","23001CX","2024-04-14 16:55:32","339424","15.4205808","0.0007865","97.4245","171.5436","22.0218","338.1365","0","999","7134","0.0015838","0.00068127","0","4280400","0 SPACEBEE-157","1 55102U 23001CX  24105.70523541  .00068127  00000-0  15838-2 0  9999","2 55102  97.4245 171.5436 0007865  22.0218 338.1365 15.42058080 71341","2023-001CX","55102","6818.173","93.382","445.401","434.676","0"
"GENERATED VIA SPACETRACK.ORG API","18 SPCS","55102","SPACEBEE-157","PAYLOAD","U","23001CX","2024-04-14 16:55:32","339424","15.4205808","0.0007865","97.4245","171.5436","22.0218","338.1365","0","999","7134","0.0015838","0.00068127","0","4280633","0 SPACEBEE-157","1 55102U 23001CX  24105.70523541  .00068127  00000-0  15838-2 0  9999","2 55102  97.4245 171.5436 0007865  22.0218 338.1365 15.42058080 71341","2023-001CX","55102","6818.173","93.382","445.401","434.676","0"
"GENERATED VIA SPACETRACK.ORG API","18 SPCS","55102","SPACEBEE-157","PAYLOAD","U","23001CX","2024-04-15 03:49:37","138368","15.42134722","0.0007786","97.4244","172.0059","19.8966","340.2583","0","999","7141","0.0017709","0.0007646","0","4281082","0 SPACEBEE-157","1 55102U 23001CX  24106.15945762  .00076460  00000-0  17709-2 0  9990","2 55102  97.4244 172.0059 0007786  19.8966 340.2583 15.42134722 71415","2023-001CX","55102","6817.947","93.377","445.121","434.504","0"
"GENERATED VIA SPACETRACK.ORG API","18 SPCS","55102","SPACEBEE-157","PAYLOAD","U","23001CX","2024-04-15 11:36:48","134016","15.42175823","0.0007804","97.4247","172.3364","18.039","342.1132","0","999","7146","0.0017275","0.0007467","0","4281855","0 SPACEBEE-157","1 55102U 23001CX  24106.48389044  .00074670  00000-0  17275-2 0  9990","2 55102  97.4247 172.3364 0007804  18.0390 342.1132 15.42175823 71466","2023-001CX","55102","6817.826","93.375","445.012","434.370","0"
"GENERATED VIA SPACETRACK.ORG API","18 SPCS","55102","SPACEBEE-157","PAYLOAD","U","23001CX","2024-04-16 03:11:07","135872","15.42290296","0.0007689","97.4248","172.9964","15.16","344.9876","0","999","7156","0.0019335","0.00084002","0","4283936","0 SPACEBEE-157","1 55102U 23001CX  24107.13272148  .00084002  00000-0  19335-2 0  9998","2 55102  97.4248 172.9964 0007689  15.1600 344.9876 15.42290296 71560","2023-001CX","55102","6817.489","93.368","444.596","434.112","0"
"GENERATED VIA SPACETRACK.ORG API","18 SPCS","55102","SPACEBEE-157","PAYLOAD","U","23001CX","2024-04-16 17:11:56","317056","15.42420667","0.0007701","97.4248","173.5914","12.8038","347.3403","0","999","7165","0.0025934","0.00113622","0","4284228","0 SPACEBEE-157","1 55102U 23001CX  24107.71662404  .00113622  00000-0  25934-2 0  9993","2 55102  97.4248 173.5914 0007701  12.8038 347.3403 15.42420667 71656","2023-001CX","55102","6817.104","93.360","444.219","433.720","0"
"GENERATED VIA SPACETRACK.ORG API","18 SPCS","55102","SPACEBEE-157","PAYLOAD","U","23001CX","2024-04-16 17:11:56","317056","15.42420667","0.0007701","97.4248","173.5914","12.8038","347.3403","0","999","7165","0.0025934","0.00113622","0","4284483","0 SPACEBEE-157","1 55102U 23001CX  24107.71662404  .00113622  00000-0  25934-2 0  9993","2 55102  97.4248 173.5914 0007701  12.8038 347.3403 15.42420667 71656","2023-001CX","55102","6817.104","93.360","444.219","433.720","0"
"GENERATED VIA SPACETRACK.ORG API","18 SPCS","55102","SPACEBEE-157","PAYLOAD","U","23001CX","2024-04-17 04:05:51","436608","15.42533747","0.0007593","97.4248","174.0535","10.9142","349.2269","0","999","7172","0.0026638","0.00117201","0","4285355","0 SPACEBEE-157","1 55102U 23001CX  24108.17073422  .00117201  00000-0  26638-2 0  9999","2 55102  97.4248 174.0535 0007593  10.9142 349.2269 15.42533747 71728","2023-001CX","55102","6816.771","93.353","443.812","433.460","0"
"GENERATED VIA SPACETRACK.ORG API","18 SPCS","55102","SPACEBEE-157","PAYLOAD","U","23001CX","2024-04-17 04:05:51","436608","15.42533747","0.0007593","97.4248","174.0535","10.9142","349.2269","0","999","7172","0.0026638","0.00117201","0","4285817","0 SPACEBEE-157","1 55102U 23001CX  24108.17073422  .00117201  00000-0  26638-2 0  9999","2 55102  97.4248 174.0535 0007593  10.9142 349.2269 15.42533747 71728","2023-001CX","55102","6816.771","93.353","443.812","433.460","0"
"GENERATED VIA SPACETRACK.ORG API","18 SPCS","55102","SPACEBEE-157","PAYLOAD","U","23001CX","2024-04-17 16:33:08","653536","15.42624965","0.0007697","97.4247","174.5824","7.9659","352.1709","0","999","7180","0.0019702","0.00086587","0","4286207","0 SPACEBEE-157","1 55102U 23001CX  24108.68968349  .00086587  00000-0  19702-2 0  9992","2 55102  97.4247 174.5824 0007697   7.9659 352.1709 15.42624965 71801","2023-001CX","55102","6816.503","93.347","443.614","433.121","0"
"GENERATED VIA SPACETRACK.ORG API","18 SPCS","55102","SPACEBEE-157","PAYLOAD","U","23001CX","2024-04-17 16:33:08","653536","15.42624965","0.0007697","97.4247","174.5824","7.9659","352.1709","0","999","7180","0.0019702","0.00086587","0","4286350","0 SPACEBEE-157","1 55102U 23001CX  24108.68968349  .00086587  00000-0  19702-2 0  9992","2 55102  97.4247 174.5824 0007697   7.9659 352.1709 15.42624965 71801","2023-001CX","55102","6816.503","93.347","443.614","433.121","0"
"GENERATED VIA SPACETRACK.ORG API","18 SPCS","55102","SPACEBEE-157","PAYLOAD","U","23001CX","2024-04-18 03:26:58","752384","15.4272162","0.000759","97.4247","175.0445","5.5157","354.6172","0","999","7187","0.0023116","0.00102136","0","4286710","0 SPACEBEE-157","1 55102U 23001CX  24109.14373556  .00102136  00000-0  23116-2 0  9997","2 55102  97.4247 175.0445 0007590   5.5157 354.6172 15.42721620 71879","2023-001CX","55102","6816.218","93.342","443.256","432.909","0"
"GENERATED VIA SPACETRACK.ORG API","18 SPCS","55102","SPACEBEE-157","PAYLOAD","U","23001CX","2024-04-18 03:26:58","752384","15.4272162","0.000759","97.4247","175.0445","5.5157","354.6172","0","999","7187","0.0023116","0.00102136","0","4287604","0 SPACEBEE-157","1 55102U 23001CX  24109.14373556  .00102136  00000-0  23116-2 0  9997","2 55102  97.4247 175.0445 0007590   5.5157 354.6172 15.42721620 71879","2023-001CX","55102","6816.218","93.342","443.256","432.909","0"
"GENERATED VIA SPACETRACK.ORG API","18 SPCS","55102","SPACEBEE-157","PAYLOAD","U","23001CX","2024-04-18 15:54:10","469952","15.42814422","0.0007614","97.4247","175.5735","3.3722","356.7575","0","999","7195","0.0020262","0.0008965","0","4287958","0 SPACEBEE-157","1 55102U 23001CX  24109.66262118  .00089650  00000-0  20262-2 0  9999","2 55102  97.4247 175.5735 0007614   3.3722 356.7575 15.42814422 71959","2023-001CX","55102","6815.945","93.336","442.999","432.620","0"
"GENERATED VIA SPACETRACK.ORG API","18 SPCS","55102","SPACEBEE-157","PAYLOAD","U","23001CX","2024-04-18 15:54:10","469952","15.42814422","0.0007614","97.4247","175.5735","3.3722","356.7575","0","999","7195","0.0020262","0.0008965","0","4288150","0 SPACEBEE-157","1 55102U 23001CX  24109.66262118  .00089650  00000-0  20262-2 0  9999","2 55102  97.4247 175.5735 0007614   3.3722 356.7575 15.42814422 71959","2023-001CX","55102","6815.945","93.336","442.999","432.620","0"
"GENERATED VIA SPACETRACK.ORG API","18 SPCS","55102","SPACEBEE-157","PAYLOAD","U","23001CX","2024-04-19 04:21:19","233504","15.42920096","0.0007549","97.4247","176.1019","1.171","358.9553","0","999","7203","0.0020491","0.00090999","0","4289260","0 SPACEBEE-157","1 55102U 23001CX  24110.18147261  .00090999  00000-0  20491-2 0  9991","2 55102  97.4247 176.1019 0007549   1.1710 358.9553 15.42920096 72036","2023-001CX","55102","6815.633","93.330","442.643","432.353","0"
